STARLINK-36698          
1 67709U 26025S   26063.52146280  .00270248  00000+0  13657-2 0  9995
2 67709  97.2850 174.9518 0000654 137.5407 222.5912 15.80857616  5138
STARLINK-36344          
1 67710U 26025T   26063.50001157 -.00005267  00000+0 -34532-4 0  9994
2 67710  97.2849 174.8971 0001188  90.0393  70.4053 15.75147431  5182
STARLINK-36687          
1 67711U 26025U   26063.27055094  .00305453  00000+0  15305-2 0  9991
2 67711  97.2852 174.6803 0001079  86.8013 273.3379 15.80954168  5106
STARLINK-36705          
1 67712U 26025V   26063.54336217  .00402785  00000+0  25600-2 0  9996
2 67712  97.2867 174.9185 0000927 115.3602 244.7760 15.75333169  5137
STARLINK-36708          
1 67713U 26025W   26062.24691656  .00571415  00000+0  27641-2 0  9998
2 67713  97.2866 173.6220 0001327 127.8035 232.3354 15.81043377  4931
STARLINK-36702          
1 67714U 26025X   26063.26169328  .00248433  00000+0  12546-2 0  9997
2 67714  97.2863 174.6904 0000965 104.4437 255.6939 15.80930004  5099
STARLINK-36718          
1 67715U 26025Y   26063.25552864  .00868659  00000+0  40349-2 0  9998
2 67715  97.2854 174.6993 0001628 146.7625 213.3746 15.81170168  5098
STARLINK-36715          
1 67716U 26025Z   26063.25759127  .00413933  00000+0  20509-2 0  9997
2 67716  97.2853 174.6967 0001564  26.9809 333.1541 15.80922147  5096
STARLINK-36385          
1 67717U 26025AA  26063.26383999  .00285513  00000+0  14347-2 0  9993
2 67717  97.2862 174.6885 0000465  75.5576 284.5743 15.80942452  5090
CZ-2F DEB               
1 67718U 26024E   26058.50732833  .00191604  00000+0  35886-2 0  9997
2 67718  50.3169  68.5830 0246509 240.0171 117.6115 15.20915897  3086
CZ-2F DEB               
1 67719U 26024F   26063.42856040  .00195013  00000+0  46990-2 0  9998
2 67719  49.7925  47.2373 0316605 250.3794 106.2724 15.01983894  3457
CZ-2F DEB               
1 67720U 26024G   26063.40683623  .00186952  00000+0  46336-2 0  9999
2 67720  49.8314  47.8837 0327440 246.4592 110.1638 14.99277874  3766
